(QGCoder demo - a pocket, a bored hole and a chamfered rim)
(Nothing here needs a tool table: no M6, so the interpreter's)
(built-in default tool is used as-is.)

G21 (millimetres)
G90 (absolute)
G17 (XY plane)
G40 (cutter compensation off)

S2000 M3 (spindle on, clockwise)
F400

G0 Z10.000
G0 X-40.000 Y-30.000

(--- outside contour, three passes 2 mm apart ---)
G0 Z1.000
G1 Z-2.000
G1 X40.000 Y-30.000
G1 X40.000 Y30.000
G1 X-40.000 Y30.000
G1 X-40.000 Y-30.000
G1 Z-4.000
G1 X40.000 Y-30.000
G1 X40.000 Y30.000
G1 X-40.000 Y30.000
G1 X-40.000 Y-30.000
G1 Z-6.000
G1 X40.000 Y-30.000
G1 X40.000 Y30.000
G1 X-40.000 Y30.000
G1 X-40.000 Y-30.000

(--- rectangular pocket, cleared with a raster ---)
G0 Z10.000
G0 X-25.000 Y-15.000
G1 Z-3.000 F200
F600
G1 X25.000 Y-15.000
G1 X25.000 Y-10.000
G1 X-25.000 Y-10.000
G1 X-25.000 Y-5.000
G1 X25.000 Y-5.000
G1 X25.000 Y0.000
G1 X-25.000 Y0.000
G1 X-25.000 Y5.000
G1 X25.000 Y5.000
G1 X25.000 Y10.000
G1 X-25.000 Y10.000
G1 X-25.000 Y15.000
G1 X25.000 Y15.000

(--- a bore, helically interpolated down to Z-8 ---)
G0 Z10.000
G0 X0.000 Y0.000
G0 Z0.500
G1 X12.000 Y0.000 F200
F300
G2 X12.000 Y0.000 I-12.000 J0.000 Z-1.500
G2 X12.000 Y0.000 I-12.000 J0.000 Z-3.500
G2 X12.000 Y0.000 I-12.000 J0.000 Z-5.500
G2 X12.000 Y0.000 I-12.000 J0.000 Z-8.000
G2 X12.000 Y0.000 I-12.000 J0.000 (a flat finishing pass)

(--- chamfer the rim of the bore ---)
G0 Z10.000
G0 X16.000 Y0.000
G1 Z-1.000 F200
G3 X16.000 Y0.000 I-16.000 J0.000 F500

G0 Z25.000
G0 X0.000 Y0.000
M5 (spindle off)
M2 (end of program)
